[
  {
    "zip": 1000,
    "name": "ADRAR"
  },
  {
    "zip": 2000,
    "name": "CHLEF"
  },
  {
    "zip": 3000,
    "name": "LAGHOUAT"
  },
  {
    "zip": 4000,
    "name": "OUM BOUAGHI"
  },
  {
    "zip": 5000,
    "name": "BATNA"
  },
  {
    "zip": 6000,
    "name": "BÉJAIA"
  },
  {
    "zip": 7000,
    "name": "BISKRA"
  },
  {
    "zip": 8000,
    "name": "BECHAR"
  },
  {
    "zip": 9000,
    "name": "BLzipA"
  },
  {
    "zip": 10000,
    "name": "BOUIRA"
  },
  {
    "zip": 11000,
    "name": "TAMANRASSET"
  },
  {
    "zip": 12000,
    "name": "TEBESSA"
  },
  {
    "zip": 13000,
    "name": "TLEMCEN"
  },
  {
    "zip": 14000,
    "name": "TIARET"
  },
  {
    "zip": 15000,
    "name": "TIZI OUZOU"
  },
  {
    "zip": 16000,
    "name": "ALGER"
  },
  {
    "zip": 17000,
    "name": "DJELFA"
  },
  {
    "zip": 18000,
    "name": "JIJEL"
  },
  {
    "zip": 19000,
    "name": "SÉTIF"
  },
  {
    "zip": 20000,
    "name": "SAzipA"
  },
  {
    "zip": 21000,
    "name": "SKIKDA"
  },
  {
    "zip": 22000,
    "name": "SzipI BEL ABBÈS"
  },
  {
    "zip": 23000,
    "name": "ANNABA"
  },
  {
    "zip": 24000,
    "name": "GUELMA"
  },
  {
    "zip": 25000,
    "name": "CONSTANTINE"
  },
  {
    "zip": 26000,
    "name": "MÉDÉA"
  },
  {
    "zip": 27000,
    "name": "MOSTAGANEM"
  },
  {
    "zip": 28000,
    "name": "M'SILA"
  },
  {
    "zip": 29000,
    "name": "MASCARA"
  },
  {
    "zip": 30000,
    "name": "OUARGLA"
  },
  {
    "zip": 31000,
    "name": "ORAN"
  },
  {
    "zip": 32000,
    "name": "EL BAYDH"
  },
  {
    "zip": 33000,
    "name": "ILLIZI"
  },
  {
    "zip": 34000,
    "name": "BORDJ BOU ARRERzipJ"
  },
  {
    "zip": 35000,
    "name": "BOUMERDÈS"
  },
  {
    "zip": 36000,
    "name": "EL TAREF"
  },
  {
    "zip": 37000,
    "name": "TINDOUF"
  },
  {
    "zip": 38000,
    "name": "TISSEMSILT"
  },
  {
    "zip": 39000,
    "name": "EL OUED"
  },
  {
    "zip": 40000,
    "name": "KHENCHLA"
  },
  {
    "zip": 41000,
    "name": "SOUK AHRAS"
  },
  {
    "zip": 42000,
    "name": "TIPAZA"
  },
  {
    "zip": 43000,
    "name": "MILA"
  },
  {
    "zip": 44000,
    "name": "AÏN DEFLA"
  },
  {
    "zip": 45000,
    "name": "NÂAMA"
  },
  {
    "zip": 46000,
    "name": "AÏN TEMOUCHENT"
  },
  {
    "zip": 47000,
    "name": "GHARDÏA"
  },
  {
    "zip": 48000,
    "name": "RELIZANE"
  },
  {
    "zip": 49000,
    "name": "TIMIMOUN"
  },
  {
    "zip": 50000,
    "name": "BORDJ BADJI MOKHTAR"
  },
  {
    "zip": 51000,
    "name": "OULED DJELLAL"
  },
  {
    "zip": 52000,
    "name": "BÉNI ABBÈS"
  },
  {
    "zip": 53000,
    "name": "IN SALAH"
  },
  {
    "zip": 54000,
    "name": "IN GUEZZAM"
  },
  {
    "zip": 55000,
    "name": "TOUGGOURT"
  },
  {
    "zip": 56000,
    "name": "DJANET"
  },
  {
    "zip": 57000,
    "name": "EL M'GHAIR"
  },
  {
    "zip": 58000,
    "name": "EL MENIAA"
  }
]
